#aV2011  7 27  0  0   .00000000      96 DD+AD WGS84 FIT  NGA
## 1646 259200.00000000   900.00000000 55769  .0000000000000
+   32     1  2  3  4  5  6  7  8  9 10 11 12 13 14 15 16 17
+         18 19 20 21 22 23 24 25 26 27 28 29 30 31 32  0  0
+          0  0  0  0  0  0  0  0  0  0  0  0  0  0  0  0  0
+          0  0  0  0  0  0  0  0  0  0  0  0  0  0  0  0  0
+          0  0  0  0  0  0  0  0  0  0  0  0  0  0  0  0  0
++         0  0  0  0  0  0  0  0  0  0  0  0  0  0  0  0  0
++         0  0  0  0  0  0  0  0  0  0  0  0  0  0  0  0  0
++         0  0  0  0  0  0  0  0  0  0  0  0  0  0  0  0  0
++         0  0  0  0  0  0  0  0  0  0  0  0  0  0  0  0  0
++         0  0  0  0  0  0  0  0  0  0  0  0  0  0  0  0  0
%c cc cc ccc ccc cccc cccc cccc cccc ccccc ccccc ccccc ccccc
%c cc cc ccc ccc cccc cccc cccc cccc ccccc ccccc ccccc ccccc
%f  0.0000000  0.000000000  0.00000000000  0.000000000000000
%f  0.0000000  0.000000000  0.00000000000  0.000000000000000
%i    0    0    0    0      0      0      0      0         0
%i    0    0    0    0      0      0      0      0         0
/*      NGA, ST. LOUIS,MO.                                  
/*   EPHEMERIS COMPUTED FROM  3 DAYS OF DATA                
/* CCCCCCCCCCCCCCCCCCCCCCCCCCCCCCCCCCCCCCCCCCCCCCCCCCCCCCCCC
/* CCCCCCCCCCCCCCCCCCCCCCCCCCCCCCCCCCCCCCCCCCCCCCCCCCCCCCCCC
*  2011  7 27  3 30   .00000000                                                 
P  1     69.606753 -15521.716824  21887.007069     -9.256228                    
V  1  26877.387861   4226.984699   2901.974072       .012152                    
P  2   5434.490495 -14934.758733  21302.321192    348.507642                    
V  2  26602.480857   4871.856052  -3871.096436       .017711                    
P  3  -8549.132154  23912.483333  -7639.707062    746.987755                    
V  3  -8138.766609   5789.067148  29174.489541       .049525                    
P  4  20628.625224  -7509.863541  14971.796484    183.786329                    
V  4  18607.331291   5698.227242 -22117.484844       .108958                    
P  5    334.627411 -23681.473941  11901.188237   -195.132660                    
V  5   7689.956254  13356.296060  26439.710715      -.054865                    
P  6 -13616.206616  22362.939507  -3448.351485   -101.825247                    
V  6  -5773.198152   1424.149929  30955.144288      -.858248                    
P  7  26008.412434   5812.918617   1394.198488     19.497831                    
V  7  -2122.320424   1822.336134  31843.422817       .015055                    
P  8  25537.909862   1366.731764  -8150.722609      8.612558                    
V  8   9565.775934   3723.102273  29941.505623       .000959                    
P  9 -14055.256831 -14313.498063 -17955.321980     95.302927                    
V  9  21559.324178   2282.174132 -19314.442349       .023640                    
P 10  12339.360287 -10268.298873  20884.507035     -8.058242                    
V 10   9588.701018  25400.085434   7123.889790      -.011506                    
P 11  12564.020524  14388.489657 -18900.387274   -171.567885                    
V 11 -23303.701264   3814.495981 -12462.934541      -.033141                    
P 12 -12013.837392 -23102.370837   5703.556056     11.816957                    
V 12   -334.691339  -7476.762635 -30881.709798       .025016                    
P 13  15644.822518   3816.382990  20995.042570    259.253629                    
V 13 -18519.108071  19510.282385  10111.974030      -.017600                    
P 14 -20913.562264  13453.433414  -8952.349552    163.787411                    
V 14   6448.904046  -9891.295750 -29533.987560       .020503                    
P 15  -2034.993171 -18732.870536 -18644.867489   -113.813075                    
V 15  16252.173803 -17449.619364  15916.582869       .019462                    
P 16   -529.845482  23748.997875  11575.937807   -187.963098                    
V 16  -6616.019864 -13373.470800  27459.947994      -.023644                    
P 17  20551.597047 -14378.274369  -8244.905259    181.186013                    
V 17  -5064.176865   9857.580107 -29533.635846      -.011349                    
P 18 -17199.249752  -7168.746626 -18728.534710    149.226913                    
V 18  -6485.285045 -23633.850766  14368.330652       .019002                    
P 19  -2300.531286  19703.454393 -17495.901211   -166.382671                    
V 19 -17104.471295  14488.699347  18935.211697      -.040814                    
P 20  14357.062545  21169.120887   7127.607317     51.088952                    
V 20    281.530102   9887.092019 -29284.099521       .003728                    
P 21 -26524.222483  -4243.658590   -879.918122   -160.577642                    
V 21   -990.422035  -3467.702769  30674.443705      -.025585                    
P 22 -13984.331094   7647.188971 -21060.199568    145.917680                    
V 22  -9266.932202 -25672.295763  -3255.194659      -.001780                    
P 23   8705.342709  12813.876863  21547.077592    288.807788                    
V 23 -18282.741970  20375.101323  -5086.411428      -.029014                    
P 24  17238.802682  14515.640133 -14238.087748    410.102892                    
V 24 -18116.486508  -1917.924255 -23507.641463       .033647                    
P 25 -16621.118970 -13923.934122  15331.509990     11.028368                    
V 25  -5107.339688 -18911.946048 -22644.659120       .018443                    
P 26   9636.795441 -21518.866870 -12413.499339   -103.805448                    
V 26  11724.745343  -9414.794996  27087.189797      -.121677                    
P 27  -8999.752856 -14528.588236 -19783.405083    288.660717                    
V 27  26304.023940   2571.578245 -13081.842892       .037556                    
P 28  14420.535939  -2937.110260 -21600.809139     54.897052                    
V 28   8578.342182  27316.986827   1720.951518       .028365                    
P 29 -15513.813204  -4771.835869  21088.813936    226.452842                    
V 29  17354.330098 -20189.990623   8271.184520       .030861                    
P 30  -6701.024726  17481.234392  18415.479901     28.960594                    
V 30 -10698.685140 -21830.554559  16475.099258       .056562                    
P 31 -17986.929770   8754.502964  17777.967445    117.131144                    
V 31 -21461.062342  -5202.040781 -19161.224351       .057501                    
P 32   7671.313237  25658.455912   1092.027782   -299.197440                    
V 32  -2294.556697   1696.749273 -31293.313365      -.071118                    
EOF
